STARLETTE               
1 07646U 75010A   25291.92252939 -.00000116  00000+0  21530-4 0  9999
2 07646  49.8257 336.9141 0205702 346.0059  13.5188 13.82345551561162
LAGEOS 1                
1 08820U 76039A   25291.76925068  .00000019  00000+0  00000+0 0  9993
2 08820 109.8414  96.6588 0044662 353.9586   9.5556  6.38664868897728
AJISAI (EGS)            
1 16908U 86061A   25291.98770325 -.00000083  00000+0  10052-3 0  9997
2 16908  50.0075 169.0786 0011134 287.1239 205.2369 12.44513743450350
COSMOS 1989 (ETALON 1)  
1 19751U 89001C   25291.64050421  .00000018  00000+0  00000+0 0  9999
2 19751  64.8060  80.4647 0023422 216.8638 155.0585  2.13156060286228
COSMOS 2024 (ETALON 2)  
1 20026U 89039C   25291.51938094 -.00000032  00000+0  00000+0 0  9991
2 20026  65.0817 318.8561 0020412 214.4407 180.3465  2.13204576283350
LAGEOS 2                
1 22195U 92070B   25274.43782847 -.00000009  00000+0  00000+0 0  9998
2 22195  52.6563  70.1545 0137774  74.3817 309.6932  6.47293810778676
STELLA                  
1 22824U 93061B   25291.95138713 -.00000012  00000+0  13530-4 0  9992
2 22824  98.8094 349.9052 0005767 210.5430 326.4268 14.27460951670351
LARETS                  
1 27944U 03042F   25291.96267652  .00000181  00000+0  44235-4 0  9998
2 27944  98.3862  84.5356 0013464  71.0693 289.1967 14.63799017178071
LARES                   
1 38077U 12006A   25291.95309443 -.00000010  00000+0  17761-3 0  9996
2 38077  69.4934 344.2986 0011465 269.6993  90.2720 12.54931967626808
LARES-2                 
1 53105U 22080A   25281.33217750 -.00000017  00000+0  00000+0 0  9999
2 53105  70.1696  31.6827 0005047  15.1998 344.8736  6.38965005 75572
